{"type":"Topology","arcs":[[[8525,1877],[-73,3],[-22,78],[118,1],[-23,-82]],[[8513,3862],[-46,-98],[-16,-60],[-16,-126],[-49,-30],[-50,-79],[-47,-164],[-32,-14],[1,-55],[25,-51],[-22,-47],[5,-42],[-38,-69],[-51,-16],[-48,-72],[-36,-125],[-32,-64],[-59,-84],[-33,-18],[-50,-105],[-83,-108],[-89,-19],[-41,-67],[39,-88],[-55,-47],[-18,-62],[-42,-21],[-75,-69],[-119,-53],[-69,-54],[-55,-26],[-33,-45],[-25,-75],[-9,-77],[-63,-50],[-67,-163],[-34,-119],[-82,-181],[-16,-65],[-36,-62],[-8,-145],[12,-77]],[[6951,870],[-79,-42],[-19,28],[-50,7],[-108,82],[-52,81],[47,21],[-29,72],[-109,55],[34,54],[-2,37],[88,36],[-33,80],[-66,23],[30,107],[-61,127],[24,52],[-7,44],[41,102],[64,83],[30,65],[106,26],[26,45],[92,1],[29,51],[-4,72],[27,23],[-1,62],[-32,29],[-59,13],[-10,66]],[[6868,2372],[12,38],[-24,51],[-47,7],[-52,136],[-3,65],[30,48],[74,70],[1,55],[48,13],[-27,63],[43,73],[10,53],[-16,110],[30,18],[55,195],[57,18],[86,90],[40,-2],[110,43]],[[7295,3516],[71,-17],[37,-105],[36,-40],[65,-24],[54,0],[27,-55],[43,-4],[51,25],[36,-16],[59,-147],[96,-34],[47,-44],[-7,-26],[135,17],[17,24],[3,88],[-17,25],[45,32],[75,201],[38,30],[-4,66],[61,69],[6,27],[53,66],[-39,11],[-20,53],[51,85],[69,60],[130,-21]],[[8549,424],[-26,27],[178,13],[5,-114],[80,-49],[-19,-45],[-62,15],[-55,45],[-37,0],[-67,73],[3,35]],[[9237,6077],[-156,31],[-99,27],[-57,46],[-84,27],[26,-55],[-62,-23],[-2,-57],[-99,13],[-54,46],[-60,16],[-70,-9],[-124,66]],[[8396,6205],[-37,46],[-96,-9],[-71,-28],[-22,52],[-69,2],[-29,22],[1,89],[-27,19]],[[8046,6398],[75,106],[31,6],[116,108],[-18,68],[45,42],[-24,47]],[[8271,6775],[56,29],[70,120],[22,57],[52,1]],[[8471,6982],[148,36],[4,29],[62,33],[36,-5],[49,46],[-10,80],[8,67],[84,20],[-1,33],[90,7],[72,34],[112,77],[79,4],[58,43],[23,65],[103,13],[58,51],[-36,43],[19,45],[64,2],[188,68],[57,-12]],[[9738,7761],[-103,-35],[-26,-44],[-58,-29],[-25,-58],[-84,-65],[-57,-101],[-30,-135],[1,-100],[45,-111],[2,-87],[16,-74],[62,-113],[17,-177],[-83,-36],[-5,-56],[30,-36],[-132,-126],[-30,-86],[-5,-67],[-44,-99],[8,-49]],[[8678,8332],[64,-83],[32,-84],[21,-19],[-22,-58],[51,-23],[35,-44],[-32,-96],[38,-60],[-54,-12],[-38,-32],[17,-115],[-106,8],[-22,40],[-51,30],[-2,37],[-58,37],[-56,-20],[-4,56],[41,31],[10,57],[-47,66],[-83,30],[22,56],[97,106],[105,39],[42,53]],[[4771,4000],[-38,-31],[-40,6],[-14,-49],[-52,0],[-11,32],[165,106],[52,-8],[-62,-56]],[[6520,4305],[7,-66],[-40,-39],[-127,24],[-49,-15],[-5,52],[-78,-23],[-98,-5],[-64,27],[-52,5],[-50,41],[-37,61],[-163,-24],[-49,-17],[-51,20],[-94,-48],[-26,-35],[-59,-5],[-4,-35],[-102,-35],[-6,-33],[-73,-43],[-54,12],[13,-57],[-63,-30],[-71,22],[-40,-7],[-90,27]],[[4995,4079],[12,28],[-28,45],[11,250],[50,86],[27,133],[22,52],[-29,39],[29,66],[74,57],[45,64],[38,-11]],[[5246,4888],[34,-20],[138,-35],[135,7],[27,14],[104,-6],[60,10],[49,-33],[154,-43],[106,2],[107,-25],[124,-12]],[[6284,4747],[39,-78],[-2,-39],[-39,-27],[-2,-46],[21,-95],[-47,-95],[42,-11],[42,-52],[58,1],[21,24],[59,4],[44,-28]],[[8271,6775],[-40,-13],[-63,41],[6,71],[-35,35],[-22,62],[-37,54],[-78,14],[21,59],[-24,27],[23,62],[-16,20],[-107,47],[-39,63],[-62,-19],[-118,82],[-63,30],[24,39],[-13,52],[-111,7],[-142,61],[-10,74],[-43,24],[-51,-14],[-86,-2]],[[7185,7651],[68,88],[-5,32],[51,82],[57,56],[58,15],[45,35],[75,32],[138,29],[102,57],[126,33],[60,-11]],[[7960,8099],[50,-52],[58,-11],[56,-35],[22,-34],[82,-5],[36,-30],[-19,-90],[26,-37],[-89,-60],[-108,2],[2,-72],[-27,-82],[12,-45],[51,-15],[10,-62],[32,-72],[41,-15],[51,26],[58,-21],[60,-102],[28,-22],[-68,-61],[70,-141],[63,-25],[14,-56]],[[6951,870],[7,-42],[-22,-85],[14,-131],[-27,-28],[34,-97],[-19,-20],[5,-95],[20,-37],[-63,-56],[-4,-30],[-77,-29],[-14,-79],[55,-100],[-34,-41],[-69,85],[-103,24],[-42,37],[-59,-36],[-11,-62],[-32,-3],[-44,53],[10,103],[-70,100],[0,31],[50,86],[-14,48],[41,18],[-18,77],[-31,51],[-30,157],[-42,75],[-54,53],[7,28],[-25,86],[-96,97],[-35,60],[-115,79],[-202,101],[-49,29],[-47,64],[-26,10]],[[5720,1451],[-3,104],[52,110],[11,60],[-24,52],[-3,147],[50,135],[-5,128],[26,78],[12,76],[20,19],[88,-24],[35,10],[78,-11],[135,113],[104,30],[34,-16],[8,-48],[76,13],[40,41],[50,-1],[79,-40],[60,-74],[115,75],[80,-19],[30,-37]],[[5550,1059],[-10,23],[32,53],[53,-23],[-75,-53]],[[8396,6205],[-42,-43],[-2,-63],[-30,-35],[-111,-74],[12,-61],[-47,-8],[-62,-71]],[[8114,5850],[-115,30],[-50,-14],[-59,36],[-33,-55],[-65,16],[-97,-42],[-37,33],[-51,-31],[-33,-42],[-79,3],[-54,-54],[-65,-32],[-123,-24],[-33,-67],[-64,-28],[-61,27],[-83,-50],[-65,23],[-58,1],[-72,19],[-43,-76],[2,-58],[-58,-17],[-9,-28],[-86,-112],[-64,-26],[-37,26],[-66,-10],[-72,23]],[[6384,5321],[-60,41],[-71,-2],[-8,98],[-34,86],[-103,14],[-72,21],[-56,58],[5,24],[-46,96],[-58,25]],[[5881,5782],[-46,38],[111,202],[45,54],[37,-20],[25,44],[25,91],[45,48],[43,77],[68,80]],[[6234,6396],[48,-34],[138,-152],[99,-39],[84,-65],[113,-26],[70,-63],[64,-4],[45,15],[77,-7],[45,26],[-14,81],[50,21],[146,-34],[34,6],[77,-86],[123,66],[33,-11],[80,56],[42,45],[70,3],[13,31],[89,62],[28,-42],[34,6],[37,98],[38,17]],[[7897,6366],[118,9],[31,23]],[[6318,3333],[7,-17],[-51,-69],[-2,-39],[-91,-78],[-68,-132],[-57,-60],[-39,-18],[-89,-81],[-55,-32],[-11,-31],[-47,0],[-41,-60],[-74,-159],[-53,16],[-49,-12],[-68,-73],[-63,23],[-111,17],[-27,-24],[-52,-3],[-57,31],[-105,37],[-44,-24]],[[5071,2545],[-7,90],[-41,78],[-119,100],[-149,75],[-58,64],[10,70],[69,107],[19,103],[35,64],[-5,48],[21,46],[24,120],[47,71],[6,43]],[[4923,3624],[128,-82],[35,-42],[29,23],[43,-22],[32,12],[45,77],[48,11],[78,48],[-1,43],[65,46],[59,1],[42,39],[82,5],[62,17],[49,-9],[46,17],[151,-64],[-29,-37],[63,-34],[-20,-33],[76,-25],[16,-22],[-45,-41],[-1,-95],[21,-63],[-29,-24],[93,-55],[61,-7],[49,36],[33,-16],[65,16],[49,-11]],[[9314,8145],[-35,-58],[-44,19],[-44,-29],[17,-130],[-79,-11],[-52,39],[-62,9],[-99,68],[-42,114],[91,24],[103,55]],[[9068,8245],[-4,-27],[106,-21],[36,14],[108,-66]],[[4545,10740],[0,0],[-7,-6],[-60,-55],[-72,-4],[26,49],[33,-16],[39,34],[41,-2]],[[6284,4747],[103,39],[-15,46],[-58,-19],[-80,81],[-3,53],[36,66],[7,115],[-19,30],[46,35],[7,55],[-21,58],[97,15]],[[8114,5850],[18,-58],[-64,-13],[-50,-40],[-48,-6],[-16,-106],[91,-49],[18,-79],[-104,-78],[6,-37],[-64,-114],[10,-47],[34,-24],[-15,-69],[11,-40],[-26,-38],[5,-60],[-39,-39],[-36,-70],[-29,-139],[-62,-32],[5,-24],[58,-46],[32,-89],[-4,-56],[-38,-151],[-29,-66],[-51,0],[-38,-27],[-68,-8],[10,-67],[-29,-14],[12,-65],[-40,-34],[-39,14],[-135,-15],[-17,-39],[-60,-64],[32,-59],[-95,-39]],[[7260,3863],[2,42],[-41,26],[-111,19]],[[7110,3950],[-104,15],[-204,-11],[-32,30],[-10,70],[-38,63],[44,127],[-119,38],[-65,33],[-62,-10]],[[3292,3728],[31,27],[14,-91],[-50,-7],[5,71]],[[3523,4433],[-70,-11],[-36,-58],[-49,-7],[4,-74],[-52,-59],[-3,132],[25,42],[75,-18],[39,71],[71,22],[40,-7],[37,-62],[-37,-21],[31,-78],[64,-50],[52,24],[56,-16],[19,-71],[-96,-13],[-87,-59],[-86,66],[-34,-2],[-12,52],[116,5],[-4,61],[-42,39],[18,24],[-39,68]],[[6234,6396],[29,17],[92,95],[50,94],[63,159],[39,56],[86,12],[7,67],[48,54],[127,21],[73,73],[22,64],[34,29]],[[6904,7137],[72,13],[44,-65],[33,-5]],[[7053,7080],[51,-21],[43,20],[13,-93],[82,-77],[40,-8],[78,-66],[53,-6],[25,-58],[-33,-67],[26,-56],[-35,-46],[12,-57],[70,-9],[65,34],[119,-19],[88,24],[103,-85],[52,-59],[-8,-65]],[[5732,4049],[64,17],[56,-23],[90,-80],[-36,-55],[-70,22],[-75,-56],[-27,54],[-79,25],[-25,70],[49,0],[53,26]],[[7053,7080],[23,80],[25,-3],[89,63],[13,31],[96,-36],[-23,89],[-54,51],[-118,31],[-56,47]],[[7048,7433],[100,191],[37,27]],[[7960,8099],[55,22],[73,-4],[140,52],[69,57],[-17,15],[70,106],[37,76],[67,21],[12,29],[91,50],[72,23],[101,8],[100,-52],[41,-44],[3,-52],[96,-93],[38,13],[15,-67],[45,-14]],[[9314,8145],[168,-33],[104,-3],[40,-24],[-24,-67],[44,-53],[-6,-60],[44,-49],[82,13],[55,-16],[-6,-50],[-77,-42]],[[7295,3516],[47,30],[6,40],[-161,85],[3,30],[100,89],[7,42],[-37,31]],[[9237,6077],[-69,-94],[-7,-37],[-70,-48],[-31,-44],[-81,-44],[-41,-74],[20,-76],[-35,-71],[-52,-33],[-40,-58],[8,-93],[69,-98],[-40,-58],[-32,-18],[-36,-58],[14,-54],[-19,-63],[-16,-122],[-65,-145],[-10,-135],[-53,-93],[11,-33],[-27,-115],[-33,-74],[-10,-117],[-39,-61],[-21,-81],[9,-75],[-28,-143]],[[5720,1451],[-70,9],[-154,112],[-61,55],[-137,168],[-27,80],[4,50],[55,46],[-15,63],[-32,21],[-115,228],[-97,262]],[[6318,3333],[-33,105],[3,66],[42,8],[93,-28],[49,60],[93,34],[30,56],[62,-4],[55,62],[63,20],[53,93],[100,62],[58,53],[55,-2],[69,32]],[[5246,4888],[48,50],[40,11],[35,39],[77,136],[-38,12],[44,63],[23,58],[37,4],[71,125],[16,92],[50,23],[77,-4],[26,94],[-49,0],[-11,-41],[-50,3],[26,49],[90,82],[54,2],[69,96]],[[4923,3624],[54,86],[65,47],[-38,33],[-10,57],[11,64],[-42,85],[-37,19],[-1,49],[70,15]],[[354,6364],[-37,-18],[-52,-82],[-85,20],[-11,42],[44,39],[-20,83],[-30,39],[58,32],[81,-58],[62,-15],[41,17],[-7,39],[34,19],[-7,46],[86,42],[20,-43],[39,-17],[39,-101],[26,-33],[-19,-50],[-74,-46],[-25,37],[-84,28],[-79,-20]],[[89,6356],[-84,-34],[-5,87],[58,16],[41,-23],[-10,-46]],[[6904,7137],[55,63],[-18,70],[29,73],[78,90]]],"transform":{"scale":[0.0003837244318095962,0.00039714676123017804],"translate":[118.22914682645734,21.900952164813095]},"objects":{"tw_county2":{"type":"GeometryCollection","geometries":[{"arcs":[[[0]],[[1,2,3,4]],[[5]]],"type":"MultiPolygon","properties":{"COUNTYSN":"10014001","COUNTYNAME":"台東縣","name":"台東縣"}},{"arcs":[[6,7,8,9,10,11]],"type":"Polygon","properties":{"COUNTYSN":"10002001","COUNTYNAME":"宜蘭縣","name":"宜蘭縣"}},{"arcs":[[12]],"type":"Polygon","properties":{"COUNTYSN":"63000001","COUNTYNAME":"台北市","name":"台北市"}},{"arcs":[[[13]],[[14,15,16,17]]],"type":"MultiPolygon","properties":{"COUNTYSN":"10009001","COUNTYNAME":"雲林縣","name":"雲林縣"}},{"arcs":[[-10,18,19,20]],"type":"Polygon","properties":{"COUNTYSN":"10003001","COUNTYNAME":"桃園縣","name":"桃園縣"}},{"arcs":[[[-3,21,22]],[[23]]],"type":"MultiPolygon","properties":{"COUNTYSN":"10013001","COUNTYNAME":"屏東縣","name":"屏東縣"}},{"arcs":[[-8,24,25,26,27,28,29]],"type":"Polygon","properties":{"COUNTYSN":"10006001","COUNTYNAME":"台中市","name":"台中市"}},{"arcs":[[30,31,32]],"type":"Polygon","properties":{"COUNTYSN":"10011001","COUNTYNAME":"台南市","name":"台南市"}},{"arcs":[[33,34]],"type":"Polygon","properties":{"COUNTYSN":"10017001","COUNTYNAME":"基隆市","name":"基隆市"}},{"arcs":[[35]],"type":"Polygon","properties":{"COUNTYSN":"09007001","COUNTYNAME":"連江縣","name":"連江縣"}},{"arcs":[[-18,36,-26,37,38,39]],"type":"Polygon","properties":{"COUNTYSN":"10008001","COUNTYNAME":"南投縣","name":"南投縣"}},{"arcs":[[[40]],[[41]]],"type":"MultiPolygon","properties":{"COUNTYSN":"10016001","COUNTYNAME":"澎湖縣","name":"澎湖縣"}},{"arcs":[[-29,42,43,44]],"type":"Polygon","properties":{"COUNTYSN":"10005001","COUNTYNAME":"苗栗縣","name":"苗栗縣"}},{"arcs":[[45]],"type":"Polygon","properties":{"COUNTYSN":"10020001","COUNTYNAME":"嘉義市","name":"嘉義市"}},{"arcs":[[-9,-30,-45,46,47,-19]],"type":"Polygon","properties":{"COUNTYSN":"10004001","COUNTYNAME":"新竹縣","name":"新竹縣"}},{"arcs":[[-11,-21,48,-34,49],[-13]],"type":"Polygon","properties":{"COUNTYSN":"10001001","COUNTYNAME":"新北市","name":"新北市"}},{"arcs":[[-5,50,-38,-25,-7,51]],"type":"Polygon","properties":{"COUNTYSN":"10015001","COUNTYNAME":"花蓮縣","name":"花蓮縣"}},{"arcs":[[-4,-23,52,-31,53,-39,-51]],"type":"Polygon","properties":{"COUNTYSN":"10012001","COUNTYNAME":"高雄市","name":"高雄市"}},{"arcs":[[-17,54,-27,-37]],"type":"Polygon","properties":{"COUNTYSN":"10007001","COUNTYNAME":"彰化縣","name":"彰化縣"}},{"arcs":[[-15,-40,-54,-33,55],[-46]],"type":"Polygon","properties":{"COUNTYSN":"10010001","COUNTYNAME":"嘉義縣","name":"嘉義縣"}},{"arcs":[[[56]],[[57]]],"type":"MultiPolygon","properties":{"COUNTYSN":"09020001","COUNTYNAME":"金門縣","name":"金門縣"}},{"arcs":[[-44,58,-47]],"type":"Polygon","properties":{"COUNTYSN":"10018001","COUNTYNAME":"新竹市","name":"新竹市"}}]}}}